NORAD_CAT_ID,OBJECT_NAME,OBJECT_TYPE,EPOCH,MEAN_MOTION,ECCENTRICITY,INCLINATION,RA_OF_ASC_NODE,ARG_OF_PERICENTER,MEAN_ANOMALY,BSTAR,MEAN_MOTION_DOT,MEAN_MOTION_DDOT,TLE_LINE0,TLE_LINE1,TLE_LINE2,SEMIMAJOR_AXIS,PERIOD,APOGEE,PERIGEE,DECAYED
53734.0,STARLINK-4616,PAYLOAD,2023-02-24 13:51:47,15.08826959,0.0001074,53.2175,193.2409,55.2389,304.8704,0.00019923,2.883e-05,0.0,0 STARLINK-4616,1 53734U 22107AL  23055.57763523  .00002883  00000-0  19923-3 0  9995,2 53734  53.2175 193.2409 0001074  55.2389 304.8704 15.08826959 26512,6917.92,95.438,540.528,539.042,0.0
53734.0,STARLINK-4616,PAYLOAD,2023-02-25 08:56:25,15.08831929,0.0001412,53.2176,189.6732,81.4001,278.7151,6.0686e-05,6.78e-06,0.0,0 STARLINK-4616,1 53734U 22107AL  23056.37252301  .00000678  00000-0  60686-4 0  9994,2 53734  53.2176 189.6732 0001412  81.4001 278.7151 15.08831929 27260,6917.905,95.438,540.747,538.793,0.0
53734.0,STARLINK-4616,PAYLOAD,2023-02-25 15:17:58,15.08832541,0.0001344,53.2174,188.4839,77.6604,282.4538,3.6765e-05,2.97e-06,0.0,0 STARLINK-4616,1 53734U 22107AL  23056.63748416  .00000297  00000-0  36765-4 0  9998,2 53734  53.2174 188.4839 0001344  77.6604 282.4538 15.08832541 26679,6917.903,95.438,540.698,538.838,0.0
53734.0,STARLINK-4616,PAYLOAD,2023-02-25 20:04:07,15.08842141,0.0001219,53.2173,187.588,111.4457,248.6665,5.9858e-05,6.65e-06,0.0,0 STARLINK-4616,1 53734U 22107AL  23056.83619591  .00000665  00000-0  59858-4 0  9998,2 53734  53.2173 187.5880 0001219 111.4457 248.6665 15.08842141 27334,6917.874,95.437,540.582,538.896,0.0
53734.0,STARLINK-4616,PAYLOAD,2023-02-26 11:57:58,15.08843131,0.0001124,53.2175,184.6151,108.0307,252.0808,0.00017571,2.51e-05,0.0,0 STARLINK-4616,1 53734U 22107AL  23057.49859285  .00002510  00000-0  17571-3 0  9993,2 53734  53.2175 184.6151 0001124 108.0307 252.0808 15.08843131 27435,6917.871,95.437,540.513,538.958,0.0
53734.0,STARLINK-4616,PAYLOAD,2023-02-26 19:54:52,15.08861682,0.0001174,53.2175,183.1302,96.7139,263.3987,0.0002414,3.558e-05,0.0,0 STARLINK-4616,1 53734U 22107AL  23057.82977747  .00003558  00000-0  24140-3 0  9997,2 53734  53.2175 183.1302 0001174  96.7139 263.3987 15.08861682 26857,6917.814,95.436,540.491,538.867,0.0
53734.0,STARLINK-4616,PAYLOAD,2023-02-27 08:38:00,15.08824845,0.0001248,53.2178,180.7509,110.5269,249.5857,-2.0833e-05,-6.19e-06,0.0,0 STARLINK-4616,1 53734U 22107AL  23058.35972989 -.00000619  00000-0 -20833-4 0  9992,2 53734  53.2178 180.7509 0001248 110.5269 249.5857 15.08824845 26934,6917.927,95.439,540.655,538.928,0.0
53734.0,STARLINK-4616,PAYLOAD,2023-02-27 18:10:16,15.08867277,0.0001093,53.2182,178.9662,113.0038,247.107,0.00026876,3.995e-05,0.0,0 STARLINK-4616,1 53734U 22107AL  23058.75713395  .00003995  00000-0  26876-3 0  9990,2 53734  53.2182 178.9662 0001093 113.0038 247.1070 15.08867277 26991,6917.797,95.436,540.418,538.906,0.0
53734.0,STARLINK-4616,PAYLOAD,2023-02-28 06:53:24,15.08834863,0.0001696,53.2179,176.5913,79.772,280.3464,-1.9716e-05,-6.02e-06,0.0,0 STARLINK-4616,1 53734U 22107AL  23059.28708460 -.00000602  00000-0 -19716-4 0  9996,2 53734  53.2179 176.5913 0001696  79.7720 280.3464 15.08834863 27076,6917.896,95.438,540.934,538.588,0.0
53734.0,STARLINK-4616,PAYLOAD,2023-02-28 13:14:57,15.08832615,0.0001393,53.2193,175.4014,99.3381,260.7769,-0.00016324,-2.884e-05,0.0,0 STARLINK-4616,1 53734U 22107AL  23059.55205088 -.00002884  00000-0 -16324-3 0  9999,2 53734  53.2193 175.4014 0001393  99.3381 260.7769 15.08832615 27744,6917.903,95.438,540.732,538.804,0.0
53734.0,STARLINK-4616,PAYLOAD,2023-02-28 18:01:05,15.08843376,0.00011,53.2185,174.5064,88.2335,271.8783,-0.0001193,-2.186e-05,0.0,0 STARLINK-4616,1 53734U 22107AL  23059.75076085 -.00002186  00000-0 -11930-3 0  9997,2 53734  53.2185 174.5064 0001100  88.2335 271.8783 15.08843376 27770,6917.87,95.437,540.496,538.974,0.0
53734.0,STARLINK-4616,PAYLOAD,2023-03-01 11:30:21,15.08827608,0.0001279,53.2185,171.2378,80.0398,280.0739,-7.024e-05,-1.405e-05,0.0,0 STARLINK-4616,1 53734U 22107AL  23060.47941727 -.00001405  00000-0 -70240-4 0  9995,2 53734  53.2185 171.2378 0001279  80.0398 280.0739 15.08827608 27254,6917.918,95.438,540.668,538.898,0.0
53734.0,STARLINK-4616,PAYLOAD,2023-03-01 16:16:30,15.0883325,0.0001391,53.2188,170.3465,79.3405,280.7743,-1.5362e-05,-5.32e-06,0.0,0 STARLINK-4616,1 53734U 22107AL  23060.67813343 -.00000532  00000-0 -15362-4 0  9993,2 53734  53.2188 170.3465 0001391  79.3405 280.7743 15.08833250 27284,6917.901,95.438,540.728,538.804,0.0
53734.0,STARLINK-4616,PAYLOAD,2023-03-02 16:07:16,15.08849515,0.000129,53.2186,165.8842,64.0701,296.0424,0.00026102,3.87e-05,0.0,0 STARLINK-4616,1 53734U 22107AL  23061.67172040  .00003870  00000-0  26102-3 0  9995,2 53734  53.2186 165.8842 0001290  64.0701 296.0424 15.08849515 28062,6917.851,95.437,540.609,538.824,0.0
53734.0,STARLINK-4616,PAYLOAD,2023-03-03 09:36:31,15.08841409,0.0001309,53.2181,162.6156,65.3199,294.793,0.00021859,3.193e-05,0.0,0 STARLINK-4616,1 53734U 22107AL  23062.40036843  .00003193  00000-0  21859-3 0  9999,2 53734  53.2181 162.6156 0001309  65.3199 294.7930 15.08841409 27549,6917.876,95.437,540.647,538.836,0.0
53734.0,STARLINK-4616,PAYLOAD,2023-03-03 11:11:54,15.08847291,0.0001428,53.2189,162.3179,77.4598,282.6554,0.00026996,4.012e-05,0.0,0 STARLINK-4616,1 53734U 22107AL  23062.46660336  .00004012  00000-0  26996-3 0  9993,2 53734  53.2189 162.3179 0001428  77.4598 282.6554 15.08847291 27552,6917.858,95.437,540.711,538.735,0.0
53734.0,STARLINK-4616,PAYLOAD,2023-03-03 15:58:02,15.08870316,9.2e-05,53.2192,161.4223,98.965,261.1446,0.00028831,4.307e-05,0.0,0 STARLINK-4616,1 53734U 22107AL  23062.66530513  .00004307  00000-0  28831-3 0  9995,2 53734  53.2192 161.4223 0000920  98.9650 261.1446 15.08870316 27588,6917.788,95.436,540.289,539.016,0.0
53734.0,STARLINK-4616,PAYLOAD,2023-03-03 23:55:00,15.08840858,0.0001353,53.219,159.9381,84.2456,275.869,0.00011921,1.61e-05,0.0,0 STARLINK-4616,1 53734U 22107AL  23062.99652981  .00001610  00000-0  11921-3 0  9991,2 53734  53.2190 159.9381 0001353  84.2456 275.8690 15.08840858 27633,6917.878,95.438,540.679,538.807,0.0
53734.0,STARLINK-4616,PAYLOAD,2023-03-04 11:02:41,15.08839702,0.0001512,53.2189,157.8571,87.4784,272.6381,-7.4766e-05,-1.478e-05,0.0,0 STARLINK-4616,1 53734U 22107AL  23063.46020770 -.00001478  00000-0 -74766-4 0  9990,2 53734  53.2189 157.8571 0001512  87.4784 272.6381 15.08839702 28331,6917.881,95.438,540.792,538.7,0.0
53734.0,STARLINK-4616,PAYLOAD,2023-03-04 15:48:50,15.0885819,0.0001044,53.2174,156.9634,97.113,262.998,0.00012703,1.735e-05,0.0,0 STARLINK-4616,1 53734U 22107AL  23063.65891555  .00001735  00000-0  12703-3 0  9994,2 53734  53.2174 156.9634 0001044  97.1130 262.9980 15.08858190 27730,6917.825,95.436,540.412,538.968,0.0
53734.0,STARLINK-4616,PAYLOAD,2023-03-04 23:45:46,15.08839815,0.000111,53.218,155.4776,98.0596,262.0522,-0.00014824,-2.646e-05,0.0,0 STARLINK-4616,1 53734U 22107AL  23063.99012412 -.00002646  00000-0 -14824-3 0  9998,2 53734  53.2180 155.4776 0001110  98.0596 262.0522 15.08839815 27789,6917.881,95.438,540.514,538.978,0.0
53734.0,STARLINK-4616,PAYLOAD,2023-03-05 09:18:05,15.0884089,0.0001132,53.2192,153.692,122.6555,237.4546,-0.00017668,-3.099e-05,0.0,0 STARLINK-4616,1 53734U 22107AL  23064.38756423 -.00003099  00000-0 -17668-3 0  9991,2 53734  53.2192 153.6920 0001132 122.6555 237.4546 15.08840890 28470,6917.878,95.437,540.526,538.96,0.0
53734.0,STARLINK-4616,PAYLOAD,2023-03-06 05:58:06,15.0884272,0.0001349,53.2186,149.829,107.3217,252.7923,0.00028814,4.301e-05,0.0,0 STARLINK-4616,1 53734U 22107AL  23065.24868732  .00004301  00000-0  28814-3 0  9994,2 53734  53.2186 149.8290 0001349 107.3217 252.7923 15.08842720 27972,6917.872,95.437,540.67,538.804,0.0
53734.0,STARLINK-4616,PAYLOAD,2023-03-06 17:05:47,15.08863963,0.0001095,53.2171,147.745,109.0943,251.0168,0.00064898,0.00010062,0.0,0 STARLINK-4616,1 53734U 22107AL  23065.71236029  .00010062  00000-0  64898-3 0  9997,2 53734  53.2171 147.7450 0001095 109.0943 251.0168 15.08863963 28048,6917.807,95.436,540.43,538.915,0.0
53734.0,STARLINK-4616,PAYLOAD,2023-03-06 21:51:57,15.08822899,0.000143,53.2193,146.8571,205.8952,154.1969,-0.0003808,-6.34e-05,0.0,0 STARLINK-4616,1 53734U 22107AL  23065.91108591 -.00006340  00000-0 -38080-3 0  9991,2 53734  53.2193 146.8571 0001430 205.8952 154.1969 15.08822899 28702,6917.933,95.439,540.787,538.808,0.0
53734.0,STARLINK-4616,PAYLOAD,2023-03-07 05:48:54,15.08825314,6.22e-05,53.2184,145.3667,103.8362,256.27,-0.00026931,-4.569e-05,0.0,0 STARLINK-4616,1 53734U 22107AL  23066.24229263 -.00004569  00000-0 -26931-3 0  9991,2 53734  53.2184 145.3667 0000622 103.8362 256.2700 15.08825314 28124,6917.925,95.438,540.221,539.36,0.0
53734.0,STARLINK-4616,PAYLOAD,2023-03-07 10:35:02,15.08853776,0.000157,53.2198,144.4791,117.4777,242.6375,0.00045774,7.007e-05,0.0,0 STARLINK-4616,1 53734U 22107AL  23066.44100620  .00007007  00000-0  45774-3 0  9992,2 53734  53.2198 144.4791 0001570 117.4777 242.6375 15.08853776 28154,6917.838,95.437,540.789,538.617,0.0
53734.0,STARLINK-4616,PAYLOAD,2023-03-07 16:56:34,15.08877572,0.0001207,53.2171,143.2848,116.4629,243.6487,0.001545,0.00024412,0.0,0 STARLINK-4616,1 53734U 22107AL  23066.70596018  .00024412  00000-0  15450-2 0  9997,2 53734  53.2171 143.2848 0001207 116.4629 243.6487 15.08877572 28196,6917.766,95.435,540.466,538.796,0.0
53734.0,STARLINK-4616,PAYLOAD,2023-03-07 21:42:44,15.08851385,4.4e-05,53.2173,142.3939,100.0285,260.0756,0.00064159,9.941e-05,0.0,0 STARLINK-4616,1 53734U 22107AL  23066.90468376  .00009941  00000-0  64159-3 0  9995,2 53734  53.2173 142.3939 0000440 100.0285 260.0756 15.08851385 28853,6917.846,95.437,540.015,539.406,0.0
53734.0,STARLINK-4616,PAYLOAD,2023-03-08 04:04:17,15.08844197,0.0001631,53.2168,141.2046,84.7645,275.3533,0.0011484,0.00018038,0.0,0 STARLINK-4616,1 53734U 22107AL  23067.16965208  .00018038  00000-0  11484-2 0  9999,2 53734  53.2168 141.2046 0001631  84.7645 275.3533 15.08844197 28265,6917.868,95.437,540.861,538.604,0.0
